[{"OBJECT_NAME":"KUIPER-00165","OBJECT_ID":"2025-217S","EPOCH":"2026-03-05T22:38:29.225184","MEAN_MOTION":14.7992569,"ECCENTRICITY":7.512e-5,"INCLINATION":51.9013,"RA_OF_ASC_NODE":52.1622,"ARG_OF_PERICENTER":100.1105,"MEAN_ANOMALY":259.9942,"EPHEMERIS_TYPE":0,"CLASSIFICATION_TYPE":"U","NORAD_CAT_ID":65778,"ELEMENT_SET_NO":999,"REV_AT_EPOCH":2442,"BSTAR":-0.00027550794,"MEAN_MOTION_DOT":-2.32e-5,"MEAN_MOTION_DDOT":0},{"OBJECT_NAME":"KUIPER-00166","OBJECT_ID":"2025-217T","EPOCH":"2026-03-05T07:34:07.734720","MEAN_MOTION":14.79992933,"ECCENTRICITY":6.79e-5,"INCLINATION":51.9042,"RA_OF_ASC_NODE":42.4609,"ARG_OF_PERICENTER":95.3066,"MEAN_ANOMALY":264.7974,"EPHEMERIS_TYPE":0,"CLASSIFICATION_TYPE":"U","NORAD_CAT_ID":65779,"ELEMENT_SET_NO":999,"REV_AT_EPOCH":2450,"BSTAR":0.00085529,"MEAN_MOTION_DOT":6.314e-5,"MEAN_MOTION_DDOT":0},{"OBJECT_NAME":"KUIPER-00167","OBJECT_ID":"2025-217U","EPOCH":"2026-03-05T06:10:35.065056","MEAN_MOTION":14.79975308,"ECCENTRICITY":8.69e-5,"INCLINATION":51.8969,"RA_OF_ASC_NODE":65.1667,"ARG_OF_PERICENTER":46.7827,"MEAN_ANOMALY":313.3207,"EPHEMERIS_TYPE":0,"CLASSIFICATION_TYPE":"U","NORAD_CAT_ID":65780,"ELEMENT_SET_NO":999,"REV_AT_EPOCH":2418,"BSTAR":0.00034318,"MEAN_MOTION_DOT":2.399e-5,"MEAN_MOTION_DDOT":0},{"OBJECT_NAME":"KUIPER-00168","OBJECT_ID":"2025-217V","EPOCH":"2026-03-05T08:14:57.580800","MEAN_MOTION":14.79914334,"ECCENTRICITY":0.0001061,"INCLINATION":51.9004,"RA_OF_ASC_NODE":47.3174,"ARG_OF_PERICENTER":79.4696,"MEAN_ANOMALY":280.6386,"EPHEMERIS_TYPE":0,"CLASSIFICATION_TYPE":"U","NORAD_CAT_ID":65781,"ELEMENT_SET_NO":999,"REV_AT_EPOCH":2444,"BSTAR":0.00058916,"MEAN_MOTION_DOT":4.271e-5,"MEAN_MOTION_DDOT":0},{"OBJECT_NAME":"KUIPER-00169","OBJECT_ID":"2025-217W","EPOCH":"2026-03-05T08:08:09.677760","MEAN_MOTION":14.79807627,"ECCENTRICITY":7.49e-5,"INCLINATION":51.9014,"RA_OF_ASC_NODE":52.3462,"ARG_OF_PERICENTER":90.7064,"MEAN_ANOMALY":269.3984,"EPHEMERIS_TYPE":0,"CLASSIFICATION_TYPE":"U","NORAD_CAT_ID":65782,"ELEMENT_SET_NO":999,"REV_AT_EPOCH":2437,"BSTAR":0.00086511,"MEAN_MOTION_DOT":6.361e-5,"MEAN_MOTION_DDOT":0},{"OBJECT_NAME":"KUIPER-00170","OBJECT_ID":"2025-217X","EPOCH":"2026-03-05T22:34:02.649216","MEAN_MOTION":14.7995423,"ECCENTRICITY":6.274e-5,"INCLINATION":51.8997,"RA_OF_ASC_NODE":54.6638,"ARG_OF_PERICENTER":71.8945,"MEAN_ANOMALY":288.2086,"EPHEMERIS_TYPE":0,"CLASSIFICATION_TYPE":"U","NORAD_CAT_ID":65783,"ELEMENT_SET_NO":999,"REV_AT_EPOCH":2439,"BSTAR":-0.0029881894,"MEAN_MOTION_DOT":-0.00022935,"MEAN_MOTION_DDOT":0},{"OBJECT_NAME":"KUIPER-00172","OBJECT_ID":"2025-217Z","EPOCH":"2026-03-05T22:00:01.999584","MEAN_MOTION":14.851795,"ECCENTRICITY":0.00019091,"INCLINATION":51.9004,"RA_OF_ASC_NODE":35.5524,"ARG_OF_PERICENTER":259.1099,"MEAN_ANOMALY":234.4634,"EPHEMERIS_TYPE":0,"CLASSIFICATION_TYPE":"U","NORAD_CAT_ID":65785,"ELEMENT_SET_NO":999,"REV_AT_EPOCH":315,"BSTAR":-8.9011592e-5,"MEAN_MOTION_DOT":-1.002e-5,"MEAN_MOTION_DDOT":0},{"OBJECT_NAME":"KUIPER-00173","OBJECT_ID":"2025-217AA","EPOCH":"2026-03-05T23:28:36.981984","MEAN_MOTION":14.81758192,"ECCENTRICITY":5.122e-5,"INCLINATION":51.9051,"RA_OF_ASC_NODE":48.8026,"ARG_OF_PERICENTER":155.8089,"MEAN_ANOMALY":204.2898,"EPHEMERIS_TYPE":0,"CLASSIFICATION_TYPE":"U","NORAD_CAT_ID":65786,"ELEMENT_SET_NO":999,"REV_AT_EPOCH":2447,"BSTAR":-0.01544897,"MEAN_MOTION_DOT":-0.00121065,"MEAN_MOTION_DDOT":0},{"OBJECT_NAME":"KUIPER-00174","OBJECT_ID":"2025-217AB","EPOCH":"2026-03-05T15:32:33.859968","MEAN_MOTION":14.7993424,"ECCENTRICITY":0.00012451,"INCLINATION":51.9039,"RA_OF_ASC_NODE":45.9991,"ARG_OF_PERICENTER":64.6408,"MEAN_ANOMALY":295.4683,"EPHEMERIS_TYPE":0,"CLASSIFICATION_TYPE":"U","NORAD_CAT_ID":65787,"ELEMENT_SET_NO":999,"REV_AT_EPOCH":2448,"BSTAR":0.00063233849,"MEAN_MOTION_DOT":4.603e-5,"MEAN_MOTION_DDOT":0},{"OBJECT_NAME":"KUIPER-00176","OBJECT_ID":"2025-217AC","EPOCH":"2026-03-05T10:17:16.318176","MEAN_MOTION":14.79932819,"ECCENTRICITY":6.76e-5,"INCLINATION":51.9017,"RA_OF_ASC_NODE":61.9388,"ARG_OF_PERICENTER":86.3146,"MEAN_ANOMALY":273.7893,"EPHEMERIS_TYPE":0,"CLASSIFICATION_TYPE":"U","NORAD_CAT_ID":65788,"ELEMENT_SET_NO":999,"REV_AT_EPOCH":2424,"BSTAR":-0.00040366,"MEAN_MOTION_DOT":-3.297e-5,"MEAN_MOTION_DDOT":0},{"OBJECT_NAME":"KUIPER-00101","OBJECT_ID":"2025-228A","EPOCH":"2026-03-05T07:20:27.900672","MEAN_MOTION":14.7992694,"ECCENTRICITY":5.69e-5,"INCLINATION":51.9032,"RA_OF_ASC_NODE":19.9631,"ARG_OF_PERICENTER":116.532,"MEAN_ANOMALY":243.57,"EPHEMERIS_TYPE":0,"CLASSIFICATION_TYPE":"U","NORAD_CAT_ID":65947,"ELEMENT_SET_NO":999,"REV_AT_EPOCH":2258,"BSTAR":0.00019647,"MEAN_MOTION_DOT":1.277e-5,"MEAN_MOTION_DDOT":0},{"OBJECT_NAME":"KUIPER-00113","OBJECT_ID":"2025-228B","EPOCH":"2026-03-05T21:14:40.608672","MEAN_MOTION":14.79952118,"ECCENTRICITY":0.00014048,"INCLINATION":51.8991,"RA_OF_ASC_NODE":12.4161,"ARG_OF_PERICENTER":116.4446,"MEAN_ANOMALY":243.666,"EPHEMERIS_TYPE":0,"CLASSIFICATION_TYPE":"U","NORAD_CAT_ID":65948,"ELEMENT_SET_NO":999,"REV_AT_EPOCH":2273,"BSTAR":-0.00052244354,"MEAN_MOTION_DOT":-4.203e-5,"MEAN_MOTION_DDOT":0},{"OBJECT_NAME":"KUIPER-00117","OBJECT_ID":"2025-228C","EPOCH":"2026-03-05T20:22:17.974560","MEAN_MOTION":14.79940789,"ECCENTRICITY":8.443e-5,"INCLINATION":51.9008,"RA_OF_ASC_NODE":15.0818,"ARG_OF_PERICENTER":94.7655,"MEAN_ANOMALY":265.3404,"EPHEMERIS_TYPE":0,"CLASSIFICATION_TYPE":"U","NORAD_CAT_ID":65949,"ELEMENT_SET_NO":999,"REV_AT_EPOCH":2269,"BSTAR":0.00056510932,"MEAN_MOTION_DOT":4.09e-5,"MEAN_MOTION_DDOT":0},{"OBJECT_NAME":"KUIPER-00121","OBJECT_ID":"2025-228D","EPOCH":"2026-03-05T13:12:22.656672","MEAN_MOTION":14.79938854,"ECCENTRICITY":0.0001142,"INCLINATION":51.902,"RA_OF_ASC_NODE":11.3966,"ARG_OF_PERICENTER":112.766,"MEAN_ANOMALY":247.3423,"EPHEMERIS_TYPE":0,"CLASSIFICATION_TYPE":"U","NORAD_CAT_ID":65950,"ELEMENT_SET_NO":999,"REV_AT_EPOCH":2272,"BSTAR":0.00019531,"MEAN_MOTION_DOT":1.268e-5,"MEAN_MOTION_DDOT":0},{"OBJECT_NAME":"KUIPER-00122","OBJECT_ID":"2025-228E","EPOCH":"2026-03-05T21:01:44.465376","MEAN_MOTION":14.79765385,"ECCENTRICITY":7.085e-5,"INCLINATION":51.9022,"RA_OF_ASC_NODE":19.9251,"ARG_OF_PERICENTER":63.5436,"MEAN_ANOMALY":296.5599,"EPHEMERIS_TYPE":0,"CLASSIFICATION_TYPE":"U","NORAD_CAT_ID":65951,"ELEMENT_SET_NO":999,"REV_AT_EPOCH":2263,"BSTAR":-0.0003885888,"MEAN_MOTION_DOT":-3.17e-5,"MEAN_MOTION_DDOT":0},{"OBJECT_NAME":"KUIPER-00123","OBJECT_ID":"2025-228F","EPOCH":"2026-03-05T20:14:42.822816","MEAN_MOTION":14.79975092,"ECCENTRICITY":0.00010492,"INCLINATION":51.8997,"RA_OF_ASC_NODE":20.1004,"ARG_OF_PERICENTER":97.2833,"MEAN_ANOMALY":262.8249,"EPHEMERIS_TYPE":0,"CLASSIFICATION_TYPE":"U","NORAD_CAT_ID":65952,"ELEMENT_SET_NO":999,"REV_AT_EPOCH":2262,"BSTAR":0.00086807424,"MEAN_MOTION_DOT":6.409e-5,"MEAN_MOTION_DDOT":0},{"OBJECT_NAME":"KUIPER-00124","OBJECT_ID":"2025-228G","EPOCH":"2026-03-05T13:57:12.330144","MEAN_MOTION":14.79937815,"ECCENTRICITY":4.23e-5,"INCLINATION":51.901,"RA_OF_ASC_NODE":13.7479,"ARG_OF_PERICENTER":80.0047,"MEAN_ANOMALY":280.0963,"EPHEMERIS_TYPE":0,"CLASSIFICATION_TYPE":"U","NORAD_CAT_ID":65953,"ELEMENT_SET_NO":999,"REV_AT_EPOCH":2269,"BSTAR":0.00033328,"MEAN_MOTION_DOT":2.321e-5,"MEAN_MOTION_DDOT":0}]
