KUIPER-00165            
1 65778U 25217S   26064.94339381 -.00002320  00000+0 -27551-3 0  9999
2 65778  51.9013  52.1622 0000751 100.1105 259.9942 14.79925690 24427
KUIPER-00166            
1 65779U 25217T   26064.31536730  .00006314  00000+0  85529-3 0  9992
2 65779  51.9042  42.4609 0000679  95.3066 264.7974 14.79992933 24509
KUIPER-00167            
1 65780U 25217U   26064.25735029  .00002399  00000+0  34318-3 0  9998
2 65780  51.8969  65.1667 0000869  46.7827 313.3207 14.79975308 24181
KUIPER-00168            
1 65781U 25217V   26064.34372200  .00004271  00000+0  58916-3 0  9998
2 65781  51.9004  47.3174 0001061  79.4696 280.6386 14.79914334 24445
KUIPER-00169            
1 65782U 25217W   26064.33900090  .00006361  00000+0  86511-3 0  9996
2 65782  51.9014  52.3462 0000749  90.7064 269.3984 14.79807627 24376
KUIPER-00170            
1 65783U 25217X   26064.94030844 -.00022935  00000+0 -29882-2 0  9999
2 65783  51.8997  54.6638 0000627  71.8945 288.2086 14.79954230 24397
KUIPER-00172            
1 65785U 25217Z   26064.91668981 -.00001002  00000+0 -89012-4 0  9992
2 65785  51.9004  35.5524 0001909 259.1099 234.4634 14.85179500  3155
KUIPER-00173            
1 65786U 25217AA  26064.97820581 -.00121065  00000+0 -15449-1 0  9997
2 65786  51.9051  48.8026 0000512 155.8089 204.2898 14.81758192 24473
KUIPER-00174            
1 65787U 25217AB  26064.64761412  .00004603  00000+0  63234-3 0  9992
2 65787  51.9039  45.9991 0001245  64.6408 295.4683 14.79934240 24487
KUIPER-00176            
1 65788U 25217AC  26064.42866109 -.00003297  00000+0 -40366-3 0  9999
2 65788  51.9017  61.9388 0000676  86.3146 273.7893 14.79932819 24245
KUIPER-00101            
1 65947U 25228A   26064.30587848  .00001277  00000+0  19647-3 0  9997
2 65947  51.9032  19.9631 0000569 116.5320 243.5700 14.79926940 22589
KUIPER-00113            
1 65948U 25228B   26064.88519223 -.00004203  00000+0 -52244-3 0  9997
2 65948  51.8991  12.4161 0001404 116.4446 243.6660 14.79952118 22735
KUIPER-00117            
1 65949U 25228C   26064.84881915  .00004090  00000+0  56511-3 0  9997
2 65949  51.9008  15.0818 0000844  94.7655 265.3404 14.79940789 22694
KUIPER-00121            
1 65950U 25228D   26064.55026223  .00001268  00000+0  19531-3 0  9995
2 65950  51.9020  11.3966 0001142 112.7660 247.3423 14.79938854 22727
KUIPER-00122            
1 65951U 25228E   26064.87620909 -.00003170  00000+0 -38859-3 0  9992
2 65951  51.9022  19.9251 0000708  63.5436 296.5599 14.79765385 22639
KUIPER-00123            
1 65952U 25228F   26064.84355119  .00006409  00000+0  86807-3 0  9990
2 65952  51.8997  20.1004 0001049  97.2833 262.8249 14.79975092 22629
KUIPER-00124            
1 65953U 25228G   26064.58139271  .00002321  00000+0  33328-3 0  9990
2 65953  51.9010  13.7479 0000423  80.0047 280.0963 14.79937815 22696
